NORAD_CAT_ID,OBJECT_NAME,OBJECT_TYPE,EPOCH,MEAN_MOTION,ECCENTRICITY,INCLINATION,RA_OF_ASC_NODE,ARG_OF_PERICENTER,MEAN_ANOMALY,BSTAR,MEAN_MOTION_DOT,MEAN_MOTION_DDOT,TLE_LINE0,TLE_LINE1,TLE_LINE2,SEMIMAJOR_AXIS,PERIOD,APOGEE,PERIGEE,DECAYED
55747.0,STARLINK-5539,PAYLOAD,2024-02-23 22:47:25,14.98319872,0.000261,70.0013,322.2785,272.3058,87.7802,9.6782e-05,1.062e-05,0.0,0 STARLINK-5539,1 55747U 23028G   24054.94959789  .00001062  00000-0  96782-4 0  9993,2 55747  70.0013 322.2785 0002610 272.3058  87.7802 14.98319872 54481,6950.224,96.108,573.903,570.275,0.0
55747.0,STARLINK-5539,PAYLOAD,2024-02-24 11:36:29,14.98330451,0.0002502,70.0014,320.9318,272.36,87.7272,2.4459e-05,1.99e-06,0.0,0 STARLINK-5539,1 55747U 23028G   24055.48367398  .00000199  00000-0  24459-4 0  9994,2 55747  70.0014 320.9318 0002502 272.3600  87.7272 14.98330451 54568,6950.191,96.107,573.795,570.318,0.0
55747.0,STARLINK-5539,PAYLOAD,2024-02-25 03:37:49,14.98337023,0.0002508,70.0014,319.2484,272.1129,87.9743,5.0784e-05,5.13e-06,0.0,0 STARLINK-5539,1 55747U 23028G   24056.15126767  .00000513  00000-0  50784-4 0  9992,2 55747  70.0014 319.2484 0002508 272.1129  87.9743 14.98337023 54661,6950.171,96.107,573.779,570.293,0.0
55747.0,STARLINK-5539,PAYLOAD,2024-02-25 22:51:26,14.98332066,0.0002644,70.001,317.2273,266.2709,93.8148,8.1163e-05,8.76e-06,0.0,0 STARLINK-5539,1 55747U 23028G   24056.95238764  .00000876  00000-0  81163-4 0  9998,2 55747  70.0010 317.2273 0002644 266.2709  93.8148 14.98332066 54780,6950.187,96.107,573.889,570.214,0.0
55747.0,STARLINK-5539,PAYLOAD,2024-02-26 03:39:50,14.9833604,0.0002724,70.0008,316.7224,267.5725,92.5122,9.8559e-05,1.083e-05,0.0,0 STARLINK-5539,1 55747U 23028G   24057.15266414  .00001083  00000-0  98559-4 0  9992,2 55747  70.0008 316.7224 0002724 267.5725  92.5122 14.98336040 54816,6950.174,96.107,573.932,570.146,0.0
55747.0,STARLINK-5539,PAYLOAD,2024-02-26 19:41:11,14.98311462,0.0002513,70.0016,315.0405,260.3375,99.75,0.00027657,3.207e-05,0.0,0 STARLINK-5539,1 55747U 23028G   24057.82027520  .00003207  00000-0  27657-3 0  9999,2 55747  70.0016 315.0405 0002513 260.3375  99.7500 14.98311462 54917,6950.25,96.108,573.862,570.369,0.0
55747.0,STARLINK-5539,PAYLOAD,2024-02-26 22:53:27,14.98328547,0.0002847,69.9998,314.7028,269.222,90.8613,-5.0699e-05,-6.98e-06,0.0,0 STARLINK-5539,1 55747U 23028G   24057.95379209 -.00000698  00000-0 -50699-4 0  9993,2 55747  69.9998 314.7028 0002847 269.2220  90.8613 14.98328547 54938,6950.197,96.107,574.041,570.084,0.0
55747.0,STARLINK-5539,PAYLOAD,2024-02-27 02:05:43,14.98328178,0.0002838,70.0,314.3664,264.5757,95.5078,-9.3564e-06,-2.05e-06,0.0,0 STARLINK-5539,1 55747U 23028G   24058.08731062 -.00000205  00000-0 -93564-5 0  9990,2 55747  70.0000 314.3664 0002838 264.5757  95.5078 14.98328178 54959,6950.199,96.107,574.036,570.091,0.0
55747.0,STARLINK-5539,PAYLOAD,2024-02-27 10:06:23,14.98330719,0.0002771,70.0,313.5246,270.8867,89.1974,1.1306e-05,4.2e-07,0.0,0 STARLINK-5539,1 55747U 23028G   24058.42110912  .00000042  00000-0  11306-4 0  9993,2 55747  70.0000 313.5246 0002771 270.8867  89.1974 14.98330719 55009,6950.191,96.107,573.982,570.13,0.0
55747.0,STARLINK-5539,PAYLOAD,2024-02-27 22:55:28,14.9833317,0.000277,70.0004,312.1791,266.1096,93.9746,-1.3276e-06,-1.09e-06,0.0,0 STARLINK-5539,1 55747U 23028G   24058.95518758 -.00000109  00000-0 -13276-5 0  9996,2 55747  70.0004 312.1791 0002770 266.1096  93.9746 14.98333170 55086,6950.183,96.107,573.973,570.123,0.0
55747.0,STARLINK-5539,PAYLOAD,2024-02-28 02:07:44,14.9833384,0.0002937,70.0001,311.8422,271.9945,88.0878,1.3443e-05,6.7e-07,0.0,0 STARLINK-5539,1 55747U 23028G   24059.08870613  .00000067  00000-0  13443-4 0  9998,2 55747  70.0001 311.8422 0002937 271.9945  88.0878 14.98333840 55100,6950.181,96.107,574.087,570.005,0.0
55747.0,STARLINK-5539,PAYLOAD,2024-02-28 19:45:13,14.98324452,0.0002672,70.0002,309.9905,268.7835,91.3017,2.0416e-05,1.51e-06,0.0,0 STARLINK-5539,1 55747U 23028G   24059.82307235  .00000151  00000-0  20416-4 0  9997,2 55747  70.0002 309.9905 0002672 268.7835  91.3017 14.98324452 55216,6950.21,96.107,573.932,570.218,0.0
55747.0,STARLINK-5539,PAYLOAD,2024-02-28 22:57:29,14.98321944,0.0002642,70.0004,309.6538,268.6307,91.4549,4.1967e-05,4.08e-06,0.0,0 STARLINK-5539,1 55747U 23028G   24059.95659384  .00000408  00000-0  41967-4 0  9995,2 55747  70.0004 309.6538 0002642 268.6307  91.4549 14.98321944 55233,6950.218,96.108,573.919,570.247,0.0
55747.0,STARLINK-5539,PAYLOAD,2024-02-29 02:09:45,14.98322032,0.0002645,70.0004,309.3171,268.3553,91.7303,4.0183e-05,3.86e-06,0.0,0 STARLINK-5539,1 55747U 23028G   24060.09011442  .00000386  00000-0  40183-4 0  9993,2 55747  70.0004 309.3171 0002645 268.3553  91.7303 14.98322032 55258,6950.218,96.108,573.921,570.244,0.0
55747.0,STARLINK-5539,PAYLOAD,2024-02-29 19:47:14,14.98329967,0.0002805,70.0003,307.4655,271.0814,89.0023,2.816e-05,2.43e-06,0.0,0 STARLINK-5539,1 55747U 23028G   24060.82447035  .00000243  00000-0  28160-4 0  9998,2 55747  70.0003 307.4655 0002805 271.0814  89.0023 14.98329967 55367,6950.193,96.107,574.008,570.108,0.0
55747.0,STARLINK-5539,PAYLOAD,2024-02-29 22:59:30,14.98332429,0.0002807,70.0002,307.1282,269.3752,90.7085,2.4103e-05,1.95e-06,0.0,0 STARLINK-5539,1 55747U 23028G   24060.95798876  .00000195  00000-0  24103-4 0  9993,2 55747  70.0002 307.1282 0002807 269.3752  90.7085 14.98332429 55388,6950.185,96.107,574.001,570.099,0.0
55747.0,STARLINK-5539,PAYLOAD,2024-03-01 10:12:26,14.98331482,0.0002892,70.0001,305.9501,269.5352,90.5476,5.948e-05,6.17e-06,0.0,0 STARLINK-5539,1 55747U 23028G   24061.42530792  .00000617  00000-0  59480-4 0  9992,2 55747  70.0001 305.9501 0002892 269.5352  90.5476 14.98331482 55457,6950.188,96.107,574.063,570.043,0.0
55747.0,STARLINK-5539,PAYLOAD,2024-03-01 19:49:14,14.98331955,0.0002954,70.0,304.9402,269.8496,90.2325,7.9793e-05,8.59e-06,0.0,0 STARLINK-5539,1 55747U 23028G   24061.82586656  .00000859  00000-0  79793-4 0  9993,2 55747  70.0000 304.9402 0002954 269.8496  90.2325 14.98331955 55518,6950.187,96.107,574.105,569.999,0.0
55747.0,STARLINK-5539,PAYLOAD,2024-03-01 21:25:22,14.98331716,0.0002957,69.9999,304.7719,269.8248,90.2572,7.6119e-05,8.15e-06,0.0,0 STARLINK-5539,1 55747U 23028G   24061.89262677  .00000815  00000-0  76119-4 0  9995,2 55747  69.9999 304.7719 0002957 269.8248  90.2572 14.98331716 55529,6950.188,96.107,574.108,569.997,0.0
55747.0,STARLINK-5539,PAYLOAD,2024-03-02 02:13:46,14.98335227,0.0002908,69.9998,304.2669,269.6985,90.384,0.00011487,1.278e-05,0.0,0 STARLINK-5539,1 55747U 23028G   24062.09290301  .00001278  00000-0  11487-3 0  9993,2 55747  69.9998 304.2669 0002908 269.6985  90.3840 14.98335227 55552,6950.177,96.107,574.063,570.021,0.0
55747.0,STARLINK-5539,PAYLOAD,2024-03-02 19:51:15,14.98335067,0.0002874,69.9997,302.4153,269.7711,90.3119,3.2933e-05,3e-06,0.0,0 STARLINK-5539,1 55747U 23028G   24062.82726341  .00000300  00000-0  32933-4 0  9997,2 55747  69.9997 302.4153 0002874 269.7711  90.3119 14.98335067 55662,6950.177,96.107,574.04,570.045,0.0
55747.0,STARLINK-5539,PAYLOAD,2024-03-02 21:27:23,14.98335013,0.0002871,69.9997,302.247,269.7777,90.3053,3.1971e-05,2.89e-06,0.0,0 STARLINK-5539,1 55747U 23028G   24062.89402323  .00000289  00000-0  31971-4 0  9992,2 55747  69.9997 302.2470 0002871 269.7777  90.3053 14.98335013 55670,6950.177,96.107,574.038,570.047,0.0
55747.0,STARLINK-5539,PAYLOAD,2024-03-03 08:40:19,14.98352486,0.0002947,70.0001,301.0679,275.5912,84.4911,-0.00037529,-4.571e-05,0.0,0 STARLINK-5539,1 55747U 23028G   24063.36133930 -.00004571  00000-0 -37529-3 0  9994,2 55747  70.0001 301.0679 0002947 275.5912  84.4911 14.98352486 55745,6950.123,96.106,574.037,569.94,0.0
55747.0,STARLINK-5539,PAYLOAD,2024-03-03 19:53:16,14.98330038,0.0002764,69.9998,299.8905,269.8645,90.2197,-5.9057e-05,-7.98e-06,0.0,0 STARLINK-5539,1 55747U 23028G   24063.82866685 -.00000798  00000-0 -59057-4 0  9993,2 55747  69.9998 299.8905 0002764 269.8645  90.2197 14.98330038 55817,6950.193,96.107,573.979,570.137,0.0
55747.0,STARLINK-5539,PAYLOAD,2024-03-03 21:29:24,14.98331203,0.0002768,69.9997,299.7221,269.7281,90.3561,-4.228e-05,-5.97e-06,0.0,0 STARLINK-5539,1 55747U 23028G   24063.89542603 -.00000597  00000-0 -42280-4 0  9998,2 55747  69.9997 299.7221 0002768 269.7281  90.3561 14.98331203 55827,6950.189,96.107,573.978,570.13,0.0
55747.0,STARLINK-5539,PAYLOAD,2024-03-04 08:42:20,14.98334659,0.0002636,69.9995,298.5435,273.8651,86.2207,-4.5155e-05,-6.32e-06,0.0,0 STARLINK-5539,1 55747U 23028G   24064.36274280 -.00000632  00000-0 -45155-4 0  9998,2 55747  69.9995 298.5435 0002636 273.8651  86.2207 14.98334659 55896,6950.178,96.107,573.876,570.211,0.0
55747.0,STARLINK-5539,PAYLOAD,2024-03-04 21:31:25,14.98330337,0.0002815,69.9994,297.1973,264.978,95.1058,-2.5506e-05,-3.97e-06,0.0,0 STARLINK-5539,1 55747U 23028G   24064.89682335 -.00000397  00000-0 -25506-4 0  9996,2 55747  69.9994 297.1973 0002815 264.9780  95.1058 14.98330337 55971,6950.192,96.107,574.013,570.1,0.0
55747.0,STARLINK-5539,PAYLOAD,2024-03-05 00:43:41,14.98330529,0.0002766,69.9993,296.8608,263.0256,97.0589,-1.8443e-05,-3.13e-06,0.0,0 STARLINK-5539,1 55747U 23028G   24065.03034309 -.00000313  00000-0 -18443-4 0  9995,2 55747  69.9993 296.8608 0002766 263.0256  97.0589 14.98330529 55999,6950.191,96.107,573.979,570.134,0.0
55747.0,STARLINK-5539,PAYLOAD,2024-03-06 00:45:42,14.98323538,0.0002833,69.9996,294.3357,268.1793,91.9041,5.5171e-05,5.65e-06,0.0,0 STARLINK-5539,1 55747U 23028G   24066.03174747  .00000565  00000-0  55171-4 0  9993,2 55747  69.9996 294.3357 0002833 268.1793  91.9041 14.98323538 56149,6950.213,96.107,574.047,570.109,0.0
55747.0,STARLINK-5539,PAYLOAD,2024-03-07 00:47:43,14.98330742,0.000296,69.9993,291.8104,267.5684,92.5136,4.2723e-05,4.17e-06,0.0,0 STARLINK-5539,1 55747U 23028G   24067.03314335  .00000417  00000-0  42723-4 0  9998,2 55747  69.9993 291.8104 0002960 267.5684  92.5136 14.98330742 56294,6950.191,96.107,574.113,569.998,0.0
